[{"OBJECT_NAME":"STARLINK-32953","OBJECT_ID":"2025-075P","EPOCH":"2026-03-09T22:33:33.185088","MEAN_MOTION":15.27599288,"ECCENTRICITY":0.00010292,"INCLINATION":43.0028,"RA_OF_ASC_NODE":269.3945,"ARG_OF_PERICENTER":259.1113,"MEAN_ANOMALY":100.9623,"EPHEMERIS_TYPE":0,"CLASSIFICATION_TYPE":"U","NORAD_CAT_ID":63561,"ELEMENT_SET_NO":999,"REV_AT_EPOCH":5196,"BSTAR":0.00099784921,"MEAN_MOTION_DOT":0.00027314,"MEAN_MOTION_DDOT":0},{"OBJECT_NAME":"OBJECT F","OBJECT_ID":"2026-023F","EPOCH":"2026-03-09T17:11:01.401216","MEAN_MOTION":15.23264948,"ECCENTRICITY":0.00223432,"INCLINATION":96.6318,"RA_OF_ASC_NODE":144.1544,"ARG_OF_PERICENTER":121.6413,"MEAN_ANOMALY":238.701,"EPHEMERIS_TYPE":0,"CLASSIFICATION_TYPE":"U","NORAD_CAT_ID":67679,"ELEMENT_SET_NO":999,"REV_AT_EPOCH":484,"BSTAR":0.00053756888,"MEAN_MOTION_DOT":0.00012778,"MEAN_MOTION_DDOT":0}]
